QIANFAN-97              
1 66039U 25233G   25330.51102750  .00000359  00000+0  21334-3 0  9995
2 66039  88.9965  63.9289 0017892  90.7503 269.5729 14.05238764  5712
QIANFAN-98              
1 66040U 25233H   25330.49233047  .00000601  00000+0  28625-3 0  9998
2 66040  88.9962  63.9064 0016657  89.3772 270.9325 14.18029057  5728
QIANFAN-99              
1 66041U 25233J   25330.50910088  .00000371  00000+0  21917-3 0  9999
2 66041  88.9965  63.9287 0017608  87.4703 272.8494 14.05559158  5712
QIANFAN-100             
1 66042U 25233K   25330.35133182  .00000584  00000+0  28121-3 0  9995
2 66042  88.9963  63.9234 0017210  92.7666 267.5492 14.17357314  5700
QIANFAN-101             
1 66043U 25233L   25330.53447564  .00000393  00000+0  15622-3 0  9998
2 66043  88.9966  63.8954 0016976  89.3139 271.0000 14.26661396  5733
QIANFAN-102             
1 66044U 25233M   25330.49108301  .00000447  00000+0  25547-3 0  9994
2 66044  88.9964  63.9253 0017643  90.5779 269.7426 14.07758734  5717
QIANFAN-103             
1 66045U 25233N   25330.51398953  .00000278  00000+0  16585-3 0  9996
2 66045  88.9964  63.9296 0017659  89.4076 270.9129 14.04308809  5714
QIANFAN-104             
1 66046U 25233P   25330.49099485  .00000523  00000+0  29985-3 0  9993
2 66046  88.9963  63.9255 0017359  91.9554 268.3618 14.07918552  5714
